IRIDIUM 33 DEB          
1 37550U 97051XK  26162.16151961  .00005165  00000+0  85906-3 0  9996
2 37550  86.3745 303.7217 0003086 171.4516 188.6753 14.69931833889819
IRIDIUM 33 DEB          
1 37562U 97051XX  26161.73214259  .00003647  00000+0  78266-3 0  9995
2 37562  86.3734 325.0108 0022701 212.8502 162.1617 14.58248668889503
IRIDIUM 33 DEB          
1 37565U 97051YA  26162.10533848  .00002989  00000+0  72882-3 0  9994
2 37565  86.3401 290.9531 0014494 187.5466 172.5524 14.52349035684547
IRIDIUM 33 DEB          
1 38017U 97051YD  26161.52005787  .00005373  00000+0  12486-2 0  9991
2 38017  86.3311  87.6898 0074849 226.0950 133.4063 14.53065387640108
IRIDIUM 33 DEB          
1 38022U 97051YJ  26159.62689016  .00004048  00000+0  11983-2 0  9997
2 38022  86.2652 298.4458 0044401 178.2462 181.8902 14.42634180717578
IRIDIUM 33 DEB          
1 38028U 97051YQ  26161.61154105  .00001287  00000+0  34916-3 0  9995
2 38028  86.3237 282.0368 0025951 242.6144 117.2418 14.46721541680953
IRIDIUM 33 DEB          
1 38228U 97051ZC  26160.72977622  .00000666  00000+0  25790-3 0  9995
2 38228  86.2948 332.3719 0062699 336.0912  38.6743 14.27590870873356
IRIDIUM 33 DEB          
1 38241U 97051ZR  26163.06715934  .00002095  00000+0  47139-3 0  9995
2 38241  86.3210 270.5081 0005056 141.2812 218.8759 14.56026759628380
IRIDIUM 33 DEB          
1 38474U 97051AAB 26163.10218866  .00001628  00000+0  40031-3 0  9995
2 38474  86.3409 290.9704 0025326 194.5154 165.5327 14.51531932679483
IRIDIUM 33 DEB          
1 38477U 97051AAE 26155.96287521  .00003224  00000+0  24387-2 0  9996
2 38477  86.4105  41.0806 0399206  91.3480 273.3431 13.61980835570489
IRIDIUM 33 DEB          
1 39777U 97051AAJ 26163.08921262  .00008280  00000+0  16420-2 0  9995
2 39777  85.9589  86.6520 0054221 295.0585  64.5003 14.61190785628291
IRIDIUM 33 DEB          
1 39778U 97051AAK 26163.18903966  .00003475  00000+0  78938-3 0  9992
2 39778  86.3768 324.3734 0009107 124.8310 235.3756 14.55738747633314
IRIDIUM 33 DEB          
1 39781U 97051AAN 26161.80324953  .00010119  00000+0  36842-2 0  9996
2 39781  86.3798 183.5990 0172227  58.4983 115.1436 14.25134658106674
IRIDIUM 33 DEB          
1 40996U 97051ABJ 26163.07148160  .00043657  00000+0  25095-2 0  9992
2 40996  86.3473 275.5445 0005365 119.9186  58.3157 15.12290266652148
IRIDIUM 33 DEB          
1 40998U 97051ABL 26160.80509353  .00001369  00000+0  38091-3 0  9992
2 40998  86.3820 337.1397 0006902 187.0999 237.1219 14.45733225 92688
IRIDIUM 33 DEB          
1 46435U 97051ABN 26161.12153723  .00014751  00000+0  36949-2 0  9994
2 46435  86.2739 116.1819 0205328  47.5157 327.7811 14.39356759104922
IRIDIUM 33 DEB          
1 46734U 97051ABR 26163.11703970  .00002459  00000+0  72018-3 0  9992
2 46734  86.2611 283.1457 0041738  94.6573  78.7692 14.43073490656255
IRIDIUM 33 DEB          
1 46965U 97051ABX 26162.54901469  .00002497  00000+0  49674-3 0  9991
2 46965  86.3339 260.3987 0021136  74.7012 300.4507 14.61599856649083
IRIDIUM 33 DEB          
1 46972U 97051ACE 26159.74604375  .00001458  00000+0  36014-3 0  9993
2 46972  86.3895 322.7402 0007093 219.5382 201.9095 14.51464710641547
