OBJECT_NAME,OBJECT_ID,EPOCH,MEAN_MOTION,ECCENTRICITY,INCLINATION,RA_OF_ASC_NODE,ARG_OF_PERICENTER,MEAN_ANOMALY,EPHEMERIS_TYPE,CLASSIFICATION_TYPE,NORAD_CAT_ID,ELEMENT_SET_NO,REV_AT_EPOCH,BSTAR,MEAN_MOTION_DOT,MEAN_MOTION_DDOT
IRIDIUM 33 DEB,1997-051XK,2026-06-11T03:52:35.294304,14.69931833,.00030864,86.3745,303.7217,171.4516,188.6753,0,U,37550,999,88981,.85906209E-3,.5165E-4,0
IRIDIUM 33 DEB,1997-051XX,2026-06-10T17:34:17.119776,14.58248668,.00227016,86.3734,325.0108,212.8502,162.1617,0,U,37562,999,88950,.78266089E-3,.3647E-4,0
IRIDIUM 33 DEB,1997-051YA,2026-06-11T02:31:41.244672,14.52349035,.0014494,86.3401,290.9531,187.5466,172.5524,0,U,37565,999,68454,.72882E-3,.2989E-4,0
IRIDIUM 33 DEB,1997-051YD,2026-06-10T12:28:52.999968,14.53065387,.0074849,86.3311,87.6898,226.0950,133.4063,0,U,38017,999,64010,.12486265E-2,.5373E-4,0
IRIDIUM 33 DEB,1997-051YJ,2026-06-08T15:02:43.309824,14.42634180,.0044401,86.2652,298.4458,178.2462,181.8902,0,U,38022,999,71757,.11982879E-2,.4048E-4,0
IRIDIUM 33 DEB,1997-051YQ,2026-06-10T14:40:37.146720,14.46721541,.00259511,86.3237,282.0368,242.6144,117.2418,0,U,38028,999,68095,.34916213E-3,.1287E-4,0
IRIDIUM 33 DEB,1997-051ZC,2026-06-09T17:30:52.665408,14.27590870,.00626994,86.2948,332.3719,336.0912,38.6743,0,U,38228,999,87335,.25789527E-3,.666E-5,0
IRIDIUM 33 DEB,1997-051ZR,2026-06-12T01:36:42.566976,14.56026759,.00050563,86.3210,270.5081,141.2812,218.8759,0,U,38241,999,62838,.47138618E-3,.2095E-4,0
IRIDIUM 33 DEB,1997-051AAB,2026-06-12T02:27:09.100224,14.51531932,.00253266,86.3409,290.9704,194.5154,165.5327,0,U,38474,999,67948,.40030716E-3,.1628E-4,0
IRIDIUM 33 DEB,1997-051AAE,2026-06-04T23:06:32.418144,13.61980835,.0399206,86.4105,41.0806,91.3480,273.3431,0,U,38477,999,57048,.243873E-2,.3224E-4,0
IRIDIUM 33 DEB,1997-051AAJ,2026-06-12T02:08:27.970368,14.61190785,.00542211,85.9589,86.6520,295.0585,64.5003,0,U,39777,999,62829,.1642022E-2,.828E-4,0
IRIDIUM 33 DEB,1997-051AAK,2026-06-12T04:32:13.026624,14.55738747,.00091075,86.3768,324.3734,124.8310,235.3756,0,U,39778,999,63331,.78937916E-3,.3475E-4,0
IRIDIUM 33 DEB,1997-051AAN,2026-06-10T19:16:40.759392,14.25134658,.01722279,86.3798,183.5990,58.4983,115.1436,0,U,39781,999,10667,.36841606E-2,.10119E-3,0
IRIDIUM 33 DEB,1997-051ABJ,2026-06-12T01:42:56.010240,15.12290266,.00053658,86.3473,275.5445,119.9186,58.3157,0,U,40996,999,65214,.25094836E-2,.43657E-3,0
IRIDIUM 33 DEB,1997-051ABL,2026-06-09T19:19:20.080992,14.45733225,.0006902,86.3820,337.1397,187.0999,237.1219,0,U,40998,999,9268,.38091E-3,.1369E-4,0
IRIDIUM 33 DEB,1997-051ABN,2026-06-10T02:55:00.816672,14.39356759,.02053284,86.2739,116.1819,47.5157,327.7811,0,U,46435,999,10492,.36949269E-2,.14751E-3,0
IRIDIUM 33 DEB,1997-051ABR,2026-06-12T02:48:32.230080,14.43073490,.00417388,86.2611,283.1457,94.6573,78.7692,0,U,46734,999,65625,.72017984E-3,.2459E-4,0
IRIDIUM 33 DEB,1997-051ABX,2026-06-11T13:10:34.869216,14.61599856,.0021136,86.3339,260.3987,74.7012,300.4507,0,U,46965,999,64908,.49674E-3,.2497E-4,0
IRIDIUM 33 DEB,1997-051ACE,2026-06-08T17:54:18.180000,14.51464710,.00070932,86.3895,322.7402,219.5382,201.9095,0,U,46972,999,64154,.36014292E-3,.1458E-4,0
